<?xml version="1.0" encoding="UTF-8"?>
<ndm xmlns:xsi="http://www.w3.org/2001/XMLSchema-instance" xsi:noNamespaceSchemaLocation="https://sanaregistry.org/r/ndmxml_unqualified/ndmxml-2.0.0-master-2.0.xsd">
<omm id="CCSDS_OMM_VERS" version="2.0">
<header><CREATION_DATE/><ORIGINATOR/></header><body><segment><metadata><OBJECT_NAME>KUIPER-00089</OBJECT_NAME><OBJECT_ID>2025-151U</OBJECT_ID><CENTER_NAME>EARTH</CENTER_NAME><REF_FRAME>TEME</REF_FRAME><TIME_SYSTEM>UTC</TIME_SYSTEM><MEAN_ELEMENT_THEORY>SGP4</MEAN_ELEMENT_THEORY></metadata><data><meanElements><EPOCH>2025-09-13T13:09:22.453056</EPOCH><MEAN_MOTION>15.36705012</MEAN_MOTION><ECCENTRICITY>.00077086</ECCENTRICITY><INCLINATION>51.8822</INCLINATION><RA_OF_ASC_NODE>1.6980</RA_OF_ASC_NODE><ARG_OF_PERICENTER>10.9237</ARG_OF_PERICENTER><MEAN_ANOMALY>349.1915</MEAN_ANOMALY></meanElements><tleParameters><EPHEMERIS_TYPE>0</EPHEMERIS_TYPE><CLASSIFICATION_TYPE>U</CLASSIFICATION_TYPE><NORAD_CAT_ID>64834</NORAD_CAT_ID><ELEMENT_SET_NO>999</ELEMENT_SET_NO><REV_AT_EPOCH>910</REV_AT_EPOCH><BSTAR>.75265676E-3</BSTAR><MEAN_MOTION_DOT>.27136E-3</MEAN_MOTION_DOT><MEAN_MOTION_DDOT>0</MEAN_MOTION_DDOT></tleParameters></data></segment></body></omm>
<omm id="CCSDS_OMM_VERS" version="2.0">
<header><CREATION_DATE/><ORIGINATOR/></header><body><segment><metadata><OBJECT_NAME>KUIPER-00090</OBJECT_NAME><OBJECT_ID>2025-151V</OBJECT_ID><CENTER_NAME>EARTH</CENTER_NAME><REF_FRAME>TEME</REF_FRAME><TIME_SYSTEM>UTC</TIME_SYSTEM><MEAN_ELEMENT_THEORY>SGP4</MEAN_ELEMENT_THEORY></metadata><data><meanElements><EPOCH>2025-09-13T13:23:21.772896</EPOCH><MEAN_MOTION>15.36429485</MEAN_MOTION><ECCENTRICITY>.00074775</ECCENTRICITY><INCLINATION>51.8815</INCLINATION><RA_OF_ASC_NODE>1.7573</RA_OF_ASC_NODE><ARG_OF_PERICENTER>11.8172</ARG_OF_PERICENTER><MEAN_ANOMALY>348.2989</MEAN_ANOMALY></meanElements><tleParameters><EPHEMERIS_TYPE>0</EPHEMERIS_TYPE><CLASSIFICATION_TYPE>U</CLASSIFICATION_TYPE><NORAD_CAT_ID>64835</NORAD_CAT_ID><ELEMENT_SET_NO>999</ELEMENT_SET_NO><REV_AT_EPOCH>910</REV_AT_EPOCH><BSTAR>.10996702E-2</BSTAR><MEAN_MOTION_DOT>.39536E-3</MEAN_MOTION_DOT><MEAN_MOTION_DDOT>0</MEAN_MOTION_DDOT></tleParameters></data></segment></body></omm>
<omm id="CCSDS_OMM_VERS" version="2.0">
<header><CREATION_DATE/><ORIGINATOR/></header><body><segment><metadata><OBJECT_NAME>KUIPER-00091</OBJECT_NAME><OBJECT_ID>2025-151W</OBJECT_ID><CENTER_NAME>EARTH</CENTER_NAME><REF_FRAME>TEME</REF_FRAME><TIME_SYSTEM>UTC</TIME_SYSTEM><MEAN_ELEMENT_THEORY>SGP4</MEAN_ELEMENT_THEORY></metadata><data><meanElements><EPOCH>2025-09-13T14:25:12.196704</EPOCH><MEAN_MOTION>15.36878227</MEAN_MOTION><ECCENTRICITY>.00072524</ECCENTRICITY><INCLINATION>51.8798</INCLINATION><RA_OF_ASC_NODE>1.2952</RA_OF_ASC_NODE><ARG_OF_PERICENTER>355.1917</ARG_OF_PERICENTER><MEAN_ANOMALY>4.8999</MEAN_ANOMALY></meanElements><tleParameters><EPHEMERIS_TYPE>0</EPHEMERIS_TYPE><CLASSIFICATION_TYPE>U</CLASSIFICATION_TYPE><NORAD_CAT_ID>64836</NORAD_CAT_ID><ELEMENT_SET_NO>999</ELEMENT_SET_NO><REV_AT_EPOCH>911</REV_AT_EPOCH><BSTAR>.43551762E-3</BSTAR><MEAN_MOTION_DOT>.156E-3</MEAN_MOTION_DOT><MEAN_MOTION_DDOT>0</MEAN_MOTION_DDOT></tleParameters></data></segment></body></omm>
<omm id="CCSDS_OMM_VERS" version="2.0">
<header><CREATION_DATE/><ORIGINATOR/></header><body><segment><metadata><OBJECT_NAME>KUIPER-00092</OBJECT_NAME><OBJECT_ID>2025-151X</OBJECT_ID><CENTER_NAME>EARTH</CENTER_NAME><REF_FRAME>TEME</REF_FRAME><TIME_SYSTEM>UTC</TIME_SYSTEM><MEAN_ELEMENT_THEORY>SGP4</MEAN_ELEMENT_THEORY></metadata><data><meanElements><EPOCH>2025-09-13T22:00:03.000096</EPOCH><MEAN_MOTION>15.28955454</MEAN_MOTION><ECCENTRICITY>.00089519</ECCENTRICITY><INCLINATION>51.8821</INCLINATION><RA_OF_ASC_NODE>359.9831</RA_OF_ASC_NODE><ARG_OF_PERICENTER>352.4055</ARG_OF_PERICENTER><MEAN_ANOMALY>219.8851</MEAN_ANOMALY></meanElements><tleParameters><EPHEMERIS_TYPE>0</EPHEMERIS_TYPE><CLASSIFICATION_TYPE>U</CLASSIFICATION_TYPE><NORAD_CAT_ID>64837</NORAD_CAT_ID><ELEMENT_SET_NO>999</ELEMENT_SET_NO><REV_AT_EPOCH>567</REV_AT_EPOCH><BSTAR>-.49072837E-1</BSTAR><MEAN_MOTION_DOT>-.1283998E-1</MEAN_MOTION_DOT><MEAN_MOTION_DDOT>0</MEAN_MOTION_DDOT></tleParameters></data></segment></body></omm>
<omm id="CCSDS_OMM_VERS" version="2.0">
<header><CREATION_DATE/><ORIGINATOR/></header><body><segment><metadata><OBJECT_NAME>KUIPER-00093</OBJECT_NAME><OBJECT_ID>2025-151Y</OBJECT_ID><CENTER_NAME>EARTH</CENTER_NAME><REF_FRAME>TEME</REF_FRAME><TIME_SYSTEM>UTC</TIME_SYSTEM><MEAN_ELEMENT_THEORY>SGP4</MEAN_ELEMENT_THEORY></metadata><data><meanElements><EPOCH>2025-09-13T22:00:03.000096</EPOCH><MEAN_MOTION>15.22093524</MEAN_MOTION><ECCENTRICITY>.00113776</ECCENTRICITY><INCLINATION>51.8846</INCLINATION><RA_OF_ASC_NODE>0.5944</RA_OF_ASC_NODE><ARG_OF_PERICENTER>15.1175</ARG_OF_PERICENTER><MEAN_ANOMALY>223.8302</MEAN_ANOMALY></meanElements><tleParameters><EPHEMERIS_TYPE>0</EPHEMERIS_TYPE><CLASSIFICATION_TYPE>U</CLASSIFICATION_TYPE><NORAD_CAT_ID>64838</NORAD_CAT_ID><ELEMENT_SET_NO>999</ELEMENT_SET_NO><REV_AT_EPOCH>269</REV_AT_EPOCH><BSTAR>-.69623501E-1</BSTAR><MEAN_MOTION_DOT>-.1483515E-1</MEAN_MOTION_DOT><MEAN_MOTION_DDOT>0</MEAN_MOTION_DDOT></tleParameters></data></segment></body></omm>
<omm id="CCSDS_OMM_VERS" version="2.0">
<header><CREATION_DATE/><ORIGINATOR/></header><body><segment><metadata><OBJECT_NAME>KUIPER-00094</OBJECT_NAME><OBJECT_ID>2025-151Z</OBJECT_ID><CENTER_NAME>EARTH</CENTER_NAME><REF_FRAME>TEME</REF_FRAME><TIME_SYSTEM>UTC</TIME_SYSTEM><MEAN_ELEMENT_THEORY>SGP4</MEAN_ELEMENT_THEORY></metadata><data><meanElements><EPOCH>2025-09-13T14:27:03.158496</EPOCH><MEAN_MOTION>15.37052187</MEAN_MOTION><ECCENTRICITY>.00072428</ECCENTRICITY><INCLINATION>51.8798</INCLINATION><RA_OF_ASC_NODE>1.3011</RA_OF_ASC_NODE><ARG_OF_PERICENTER>1.6453</ARG_OF_PERICENTER><MEAN_ANOMALY>358.4557</MEAN_ANOMALY></meanElements><tleParameters><EPHEMERIS_TYPE>0</EPHEMERIS_TYPE><CLASSIFICATION_TYPE>U</CLASSIFICATION_TYPE><NORAD_CAT_ID>64839</NORAD_CAT_ID><ELEMENT_SET_NO>999</ELEMENT_SET_NO><REV_AT_EPOCH>911</REV_AT_EPOCH><BSTAR>.43838194E-3</BSTAR><MEAN_MOTION_DOT>.15795E-3</MEAN_MOTION_DOT><MEAN_MOTION_DDOT>0</MEAN_MOTION_DDOT></tleParameters></data></segment></body></omm>
<omm id="CCSDS_OMM_VERS" version="2.0">
<header><CREATION_DATE/><ORIGINATOR/></header><body><segment><metadata><OBJECT_NAME>KUIPER-00081</OBJECT_NAME><OBJECT_ID>2025-171A</OBJECT_ID><CENTER_NAME>EARTH</CENTER_NAME><REF_FRAME>TEME</REF_FRAME><TIME_SYSTEM>UTC</TIME_SYSTEM><MEAN_ELEMENT_THEORY>SGP4</MEAN_ELEMENT_THEORY></metadata><data><meanElements><EPOCH>2025-09-13T16:52:50.966688</EPOCH><MEAN_MOTION>15.36434703</MEAN_MOTION><ECCENTRICITY>.00044374</ECCENTRICITY><INCLINATION>51.8735</INCLINATION><RA_OF_ASC_NODE>244.5836</RA_OF_ASC_NODE><ARG_OF_PERICENTER>240.5972</ARG_OF_PERICENTER><MEAN_ANOMALY>119.4572</MEAN_ANOMALY></meanElements><tleParameters><EPHEMERIS_TYPE>0</EPHEMERIS_TYPE><CLASSIFICATION_TYPE>U</CLASSIFICATION_TYPE><NORAD_CAT_ID>65132</NORAD_CAT_ID><ELEMENT_SET_NO>999</ELEMENT_SET_NO><REV_AT_EPOCH>635</REV_AT_EPOCH><BSTAR>.79920076E-3</BSTAR><MEAN_MOTION_DOT>.28575E-3</MEAN_MOTION_DOT><MEAN_MOTION_DDOT>0</MEAN_MOTION_DDOT></tleParameters></data></segment></body></omm>
<omm id="CCSDS_OMM_VERS" version="2.0">
<header><CREATION_DATE/><ORIGINATOR/></header><body><segment><metadata><OBJECT_NAME>KUIPER-00088</OBJECT_NAME><OBJECT_ID>2025-171B</OBJECT_ID><CENTER_NAME>EARTH</CENTER_NAME><REF_FRAME>TEME</REF_FRAME><TIME_SYSTEM>UTC</TIME_SYSTEM><MEAN_ELEMENT_THEORY>SGP4</MEAN_ELEMENT_THEORY></metadata><data><meanElements><EPOCH>2025-09-13T16:53:18.562848</EPOCH><MEAN_MOTION>15.36514877</MEAN_MOTION><ECCENTRICITY>.00039914</ECCENTRICITY><INCLINATION>51.8746</INCLINATION><RA_OF_ASC_NODE>244.5870</RA_OF_ASC_NODE><ARG_OF_PERICENTER>235.5929</ARG_OF_PERICENTER><MEAN_ANOMALY>124.4680</MEAN_ANOMALY></meanElements><tleParameters><EPHEMERIS_TYPE>0</EPHEMERIS_TYPE><CLASSIFICATION_TYPE>U</CLASSIFICATION_TYPE><NORAD_CAT_ID>65133</NORAD_CAT_ID><ELEMENT_SET_NO>999</ELEMENT_SET_NO><REV_AT_EPOCH>635</REV_AT_EPOCH><BSTAR>.86573975E-3</BSTAR><MEAN_MOTION_DOT>.31076E-3</MEAN_MOTION_DOT><MEAN_MOTION_DDOT>0</MEAN_MOTION_DDOT></tleParameters></data></segment></body></omm>

</ndm>
