KUIPER-00089            
1 64834U 25151U   25256.54817654  .00027136  00000+0  75266-3 0  9996
2 64834  51.8822   1.6980 0007708  10.9237 349.1915 15.36705012  9103
KUIPER-00090            
1 64835U 25151V   25256.55789089  .00039536  00000+0  10997-2 0  9994
2 64835  51.8815   1.7573 0007477  11.8172 348.2989 15.36429485  9104
KUIPER-00091            
1 64836U 25151W   25256.60083561  .00015600  00000+0  43552-3 0  9993
2 64836  51.8798   1.2952 0007252 355.1917   4.8999 15.36878227  9112
KUIPER-00092            
1 64837U 25151X   25256.91670139 -.01283998  00000+0 -49073-1 0  9993
2 64837  51.8821 359.9831 0008951 352.4055 219.8851 15.28955454  5670
KUIPER-00093            
1 64838U 25151Y   25256.91670139 -.01483515  00000+0 -69624-1 0  9995
2 64838  51.8846   0.5944 0011377  15.1175 223.8302 15.22093524  2694
KUIPER-00094            
1 64839U 25151Z   25256.60211989  .00015795  00000+0  43838-3 0  9995
2 64839  51.8798   1.3011 0007242   1.6453 358.4557 15.37052187  9117
KUIPER-00081            
1 65132U 25171A   25256.70336767  .00028575  00000+0  79920-3 0  9998
2 65132  51.8735 244.5836 0004437 240.5972 119.4572 15.36434703  6356
KUIPER-00088            
1 65133U 25171B   25256.70368707  .00031076  00000+0  86574-3 0  9991
2 65133  51.8746 244.5870 0003991 235.5929 124.4680 15.36514877  6354
